start=new Date('2022-10-15T00:00:00.000Z').valueOf();
sats=[{"OBJECT_NAME":"STARLINK-3305","REV_AT_EPOCH":"4910","TLE_LINE2":"2 50166  53.2183  64.2734 0002315  43.3682 316.7492 15.08845766 49101","COUNTRY_CODE":"US","EPHEMERIS_TYPE":"0","EPOCH":"2022-10-14T18:41:16.125504","ARG_OF_PERICENTER":"43.3682","INCLINATION":"53.2183","FILE":"3612869","MEAN_MOTION_DOT":"0.00002080","NORAD_CAT_ID":"50166","MEAN_MOTION":"15.08845766","CLASSIFICATION_TYPE":"U","MEAN_ANOMALY":"316.7492","OBJECT_ID":"2021-125L","SEMIMAJOR_AXIS":"6917.863","MEAN_MOTION_DDOT":"0.0000000000000","ELEMENT_SET_NO":"999","DECAY_DATE":null,"PERIOD":"95.437","RCS_SIZE":"LARGE","TIME_SYSTEM":"UTC","CENTER_NAME":"EARTH","BSTAR":"0.00014871000000","ECCENTRICITY":"0.00023150","SITE":"AFWTR","OBJECT_TYPE":"PAYLOAD","APOAPSIS":"541.329","GP_ID":"215145301","RA_OF_ASC_NODE":"64.2734","PERIAPSIS":"538.126","REF_FRAME":"TEME","MEAN_ELEMENT_THEORY":"SGP4","TLE_LINE1":"1 50166U 21125L   22287.77865886  .00002080  00000-0  14871-3 0  9999","LAUNCH_DATE":"2021-12-18"},{"ELEMENT_SET_NO":"999","MEAN_MOTION_DDOT":"0.0000000000000","SEMIMAJOR_AXIS":"6917.869","PERIOD":"95.437","DECAY_DATE":null,"CLASSIFICATION_TYPE":"U","MEAN_ANOMALY":"305.4711","OBJECT_ID":"2021-125M","MEAN_MOTION_DOT":"0.00000870","FILE":"3612869","ARG_OF_PERICENTER":"54.6447","INCLINATION":"53.2189","MEAN_MOTION":"15.08843690","NORAD_CAT_ID":"50167","TLE_LINE2":"2 50167  53.2189  74.1280 0001783  54.6447 305.4711 15.08843690 48973","REV_AT_EPOCH":"4897","OBJECT_NAME":"STARLINK-3271","EPOCH":"2022-10-14T19:32:55.439520","EPHEMERIS_TYPE":"0","COUNTRY_CODE":"US","LAUNCH_DATE":"2021-12-18","TLE_LINE1":"1 50167U 21125M   22287.81453055  .00000870  00000-0  72730-4 0  9990","MEAN_ELEMENT_THEORY":"SGP4","REF_FRAME":"TEME","PERIAPSIS":"538.501","ECCENTRICITY":"0.00017830","GP_ID":"215145051","RA_OF_ASC_NODE":"74.1280","APOAPSIS":"540.968","OBJECT_TYPE":"PAYLOAD","SITE":"AFWTR","CENTER_NAME":"EARTH","TIME_SYSTEM":"UTC","RCS_SIZE":"LARGE","BSTAR":"0.00007273000000"},{"FILE":"3611991","ARG_OF_PERICENTER":"41.0385","INCLINATION":"53.2175","MEAN_MOTION_DOT":"0.00001199","NORAD_CAT_ID":"50168","MEAN_MOTION":"15.08831051","REV_AT_EPOCH":"4907","OBJECT_NAME":"STARLINK-3296","TLE_LINE2":"2 50168  53.2175  65.4770 0002137  41.0385 319.0768 15.08831051 49074","EPHEMERIS_TYPE":"0","EPOCH":"2022-10-14T12:14:25.410048","COUNTRY_CODE":"US","SEMIMAJOR_AXIS":"6917.908","MEAN_MOTION_DDOT":"0.0000000000000","ELEMENT_SET_NO":"999","PERIOD":"95.438","DECAY_DATE":null,"CLASSIFICATION_TYPE":"U","MEAN_ANOMALY":"319.0768","OBJECT_ID":"2021-125N","ECCENTRICITY":"0.00021370","OBJECT_TYPE":"PAYLOAD","SITE":"AFWTR","RA_OF_ASC_NODE":"65.4770","GP_ID":"215103359","APOAPSIS":"541.251","TIME_SYSTEM":"UTC","RCS_SIZE":"LARGE","CENTER_NAME":"EARTH","BSTAR":"0.00009345900000","MEAN_ELEMENT_THEORY":"SGP4","LAUNCH_DATE":"2021-12-18","TLE_LINE1":"1 50168U 21125N   22287.51001632  .00001199  00000-0  93459-4 0  9994","PERIAPSIS":"538.294","REF_FRAME":"TEME"},{"OBJECT_NAME":"STARLINK-3301","REV_AT_EPOCH":"4911","TLE_LINE2":"2 50169  53.2164  64.4308 0002155  37.5727 322.5415 15.08838939 49114","COUNTRY_CODE":"US","EPOCH":"2022-10-14T17:53:33.518976","EPHEMERIS_TYPE":"0","INCLINATION":"53.2164","ARG_OF_PERICENTER":"37.5727","FILE":"3612869","MEAN_MOTION_DOT":"0.00000533","NORAD_CAT_ID":"50169","MEAN_MOTION":"15.08838939","CLASSIFICATION_TYPE":"U","OBJECT_ID":"2021-125P","MEAN_ANOMALY":"322.5415","SEMIMAJOR_AXIS":"6917.884","ELEMENT_SET_NO":"999","MEAN_MOTION_DDOT":"0.0000000000000","DECAY_DATE":null,"PERIOD":"95.438","RCS_SIZE":"LARGE","TIME_SYSTEM":"UTC","CENTER_NAME":"EARTH","BSTAR":"0.00005162400000","ECCENTRICITY":"0.00021550","SITE":"AFWTR","OBJECT_TYPE":"PAYLOAD","APOAPSIS":"541.239","GP_ID":"215144550","RA_OF_ASC_NODE":"64.4308","PERIAPSIS":"538.258","REF_FRAME":"TEME","MEAN_ELEMENT_THEORY":"SGP4","TLE_LINE1":"1 50169U 21125P   22287.74552684  .00000533  00000-0  51624-4 0  9997","LAUNCH_DATE":"2021-12-18"},{"CENTER_NAME":"EARTH","RCS_SIZE":"LARGE","TIME_SYSTEM":"UTC","BSTAR":"0.00016302000000","ECCENTRICITY":"0.00022870","APOAPSIS":"541.300","RA_OF_ASC_NODE":"64.3263","GP_ID":"215144801","SITE":"AFWTR","OBJECT_TYPE":"PAYLOAD","REF_FRAME":"TEME","PERIAPSIS":"538.135","TLE_LINE1":"1 50170U 21125Q   22287.76761101  .00002308  00000-0  16302-3 0  9992","LAUNCH_DATE":"2021-12-18","MEAN_ELEMENT_THEORY":"SGP4","TLE_LINE2":"2 50170  53.2183  64.3263 0002287  31.2974 328.8154 15.08849136 49106","OBJECT_NAME":"STARLINK-3245","REV_AT_EPOCH":"4910","COUNTRY_CODE":"US","EPOCH":"2022-10-14T18:25:21.591264","EPHEMERIS_TYPE":"0","MEAN_MOTION_DOT":"0.00002308","INCLINATION":"53.2183","ARG_OF_PERICENTER":"31.2974","FILE":"3612869","MEAN_MOTION":"15.08849136","NORAD_CAT_ID":"50170","CLASSIFICATION_TYPE":"U","MEAN_ANOMALY":"328.8154","OBJECT_ID":"2021-125Q","MEAN_MOTION_DDOT":"0.0000000000000","ELEMENT_SET_NO":"999","SEMIMAJOR_AXIS":"6917.852","DECAY_DATE":null,"PERIOD":"95.437"},{"REF_FRAME":"TEME","PERIAPSIS":"538.305","LAUNCH_DATE":"2021-12-18","TLE_LINE1":"1 50171U 21125R   22287.78232710  .00001835  00000-0  13335-3 0  9991","MEAN_ELEMENT_THEORY":"SGP4","CENTER_NAME":"EARTH","TIME_SYSTEM":"UTC","RCS_SIZE":"LARGE","BSTAR":"0.00013335000000","ECCENTRICITY":"0.00020520","GP_ID":"215145552","RA_OF_ASC_NODE":"64.2654","APOAPSIS":"541.144","OBJECT_TYPE":"PAYLOAD","SITE":"AFWTR","CLASSIFICATION_TYPE":"U","MEAN_ANOMALY":"312.1099","OBJECT_ID":"2021-125R","ELEMENT_SET_NO":"999","MEAN_MOTION_DDOT":"0.0000000000000","SEMIMAJOR_AXIS":"6917.859","PERIOD":"95.437","DECAY_DATE":null,"TLE_LINE2":"2 50171  53.2202  64.2654 0002052  48.0067 312.1099 15.08846871 49119","OBJECT_NAME":"STARLINK-3286","REV_AT_EPOCH":"4911","EPHEMERIS_TYPE":"0","EPOCH":"2022-10-14T18:46:33.061440","COUNTRY_CODE":"US","MEAN_MOTION_DOT":"0.00001835","FILE":"3612869","ARG_OF_PERICENTER":"48.0067","INCLINATION":"53.2202","MEAN_MOTION":"15.08846871","NORAD_CAT_ID":"50171"},{"OBJECT_TYPE":"PAYLOAD","SITE":"AFWTR","RA_OF_ASC_NODE":"64.3701","GP_ID":"215144300","APOAPSIS":"540.998","ECCENTRICITY":"0.00018260","BSTAR":"0.00005961000000","TIME_SYSTEM":"UTC","RCS_SIZE":"LARGE","CENTER_NAME":"EARTH","MEAN_ELEMENT_THEORY":"SGP4","LAUNCH_DATE":"2021-12-18","TLE_LINE1":"1 50172U 21125S   22287.76025087  .00000661  00000-0  59610-4 0  9990","PERIAPSIS":"538.471","REF_FRAME":"TEME","NORAD_CAT_ID":"50172","MEAN_MOTION":"15.08843518","FILE":"3612869","INCLINATION":"53.2179","ARG_OF_PERICENTER":"44.9422","MEAN_MOTION_DOT":"0.00000661","EPHEMERIS_TYPE":"0","EPOCH":"2022-10-14T18:14:45.675168","COUNTRY_CODE":"US","REV_AT_EPOCH":"4914","OBJECT_NAME":"STARLINK-3287","TLE_LINE2":"2 50172  53.2179  64.3701 0001826  44.9422 315.1718 15.08843518 49144","PERIOD":"95.437","DECAY_DATE":null,"SEMIMAJOR_AXIS":"6917.870","MEAN_MOTION_DDOT":"0.0000000000000","ELEMENT_SET_NO":"999","MEAN_ANOMALY":"315.1718","OBJECT_ID":"2021-125S","CLASSIFICATION_TYPE":"U"},{"OBJECT_NAME":"STARLINK-3289","REV_AT_EPOCH":"4924","TLE_LINE2":"2 50173  53.2184  54.8402 0001593  63.2930 296.8225 15.08843241 49244","COUNTRY_CODE":"US","EPHEMERIS_TYPE":"0","EPOCH":"2022-10-14T15:43:47.086176","INCLINATION":"53.2184","ARG_OF_PERICENTER":"63.2930","FILE":"3612869","MEAN_MOTION_DOT":"0.00001824","NORAD_CAT_ID":"50173","MEAN_MOTION":"15.08843241","CLASSIFICATION_TYPE":"U","OBJECT_ID":"2021-125T","MEAN_ANOMALY":"296.8225","SEMIMAJOR_AXIS":"6917.870","MEAN_MOTION_DDOT":"0.0000000000000","ELEMENT_SET_NO":"999","DECAY_DATE":null,"PERIOD":"95.437","RCS_SIZE":"LARGE","TIME_SYSTEM":"UTC","CENTER_NAME":"EARTH","BSTAR":"0.00013268000000","ECCENTRICITY":"0.00015930","SITE":"AFWTR","OBJECT_TYPE":"PAYLOAD","APOAPSIS":"540.837","GP_ID":"215144050","RA_OF_ASC_NODE":"54.8402","PERIAPSIS":"538.633","REF_FRAME":"TEME","MEAN_ELEMENT_THEORY":"SGP4","TLE_LINE1":"1 50173U 21125T   22287.65540609  .00001824  00000-0  13268-3 0  9991","LAUNCH_DATE":"2021-12-18"},{"DECAY_DATE":null,"PERIOD":"95.437","SEMIMAJOR_AXIS":"6917.853","MEAN_MOTION_DDOT":"0.0000000000000","ELEMENT_SET_NO":"999","MEAN_ANOMALY":"320.2381","OBJECT_ID":"2021-125U","CLASSIFICATION_TYPE":"U","NORAD_CAT_ID":"50174","MEAN_MOTION":"15.08848812","ARG_OF_PERICENTER":"39.8752","INCLINATION":"53.2172","FILE":"3612869","MEAN_MOTION_DOT":"0.00001741","COUNTRY_CODE":"US","EPOCH":"2022-10-14T17:58:51.958272","EPHEMERIS_TYPE":"0","OBJECT_NAME":"STARLINK-3292","REV_AT_EPOCH":"4915","TLE_LINE2":"2 50174  53.2172  64.4218 0001915  39.8752 320.2381 15.08848812 49157","MEAN_ELEMENT_THEORY":"SGP4","TLE_LINE1":"1 50174U 21125U   22287.74921248  .00001741  00000-0  12742-3 0  9998","LAUNCH_DATE":"2021-12-18","PERIAPSIS":"538.394","REF_FRAME":"TEME","SITE":"AFWTR","OBJECT_TYPE":"PAYLOAD","APOAPSIS":"541.043","GP_ID":"215145302","RA_OF_ASC_NODE":"64.4218","ECCENTRICITY":"0.00019150","BSTAR":"0.00012742000000","RCS_SIZE":"LARGE","TIME_SYSTEM":"UTC","CENTER_NAME":"EARTH"},{"BSTAR":"0.00029216000000","CENTER_NAME":"EARTH","RCS_SIZE":"LARGE","TIME_SYSTEM":"UTC","APOAPSIS":"541.245","GP_ID":"215145052","RA_OF_ASC_NODE":"65.2027","SITE":"AFWTR","OBJECT_TYPE":"PAYLOAD","ECCENTRICITY":"0.00021000","REF_FRAME":"TEME","PERIAPSIS":"538.339","TLE_LINE1":"1 50175U 21125V   22287.57258205  .00004363  00000-0  29216-3 0  9993","LAUNCH_DATE":"2021-12-18","MEAN_ELEMENT_THEORY":"SGP4","COUNTRY_CODE":"US","EPHEMERIS_TYPE":"0","EPOCH":"2022-10-14T13:44:31.089120","TLE_LINE2":"2 50175  53.2188  65.2027 0002100  43.9513 316.1646 15.08824814 49086","OBJECT_NAME":"STARLINK-3291","REV_AT_EPOCH":"4908","MEAN_MOTION":"15.08824814","NORAD_CAT_ID":"50175","MEAN_MOTION_DOT":"0.00004363","ARG_OF_PERICENTER":"43.9513","INCLINATION":"53.2188","FILE":"3612869","OBJECT_ID":"2021-125V","MEAN_ANOMALY":"316.1646","CLASSIFICATION_TYPE":"U","DECAY_DATE":null,"PERIOD":"95.439","MEAN_MOTION_DDOT":"0.0000000000000","ELEMENT_SET_NO":"999","SEMIMAJOR_AXIS":"6917.927"}];
